NORAD_CAT_ID,OBJECT_NAME,OBJECT_TYPE,EPOCH,MEAN_MOTION,ECCENTRICITY,INCLINATION,RA_OF_ASC_NODE,ARG_OF_PERICENTER,MEAN_ANOMALY,BSTAR,MEAN_MOTION_DOT,MEAN_MOTION_DDOT,TLE_LINE0,TLE_LINE1,TLE_LINE2,SEMIMAJOR_AXIS,PERIOD,APOGEE,PERIGEE,DECAYED
55285.0,STARLINK-5332,PAYLOAD,2023-10-08 20:23:27,14.98331742,0.0002854,70.001,70.3136,269.5109,90.5723,1.4878e-05,8.5e-07,0.0,0 STARLINK-5332,1 55285U 23010S   23281.84962167  .00000085  00000-0  14878-4 0  9995,2 55285  70.0010  70.3136 0002854 269.5109  90.5723 14.98331742 42404,6950.188,96.107,574.036,570.069,0.0
55285.0,STARLINK-5332,PAYLOAD,2023-10-09 14:00:56,14.98328633,0.0002844,70.0009,68.4615,273.2149,86.8684,-4.9256e-05,-6.81e-06,0.0,0 STARLINK-5332,1 55285U 23010S   23282.58398612 -.00000681  00000-0 -49256-4 0  9997,2 55285  70.0009  68.4615 0002844 273.2149  86.8684 14.98328633 42518,6950.197,96.107,574.039,570.085,0.0
55285.0,STARLINK-5332,PAYLOAD,2023-10-09 18:49:20,14.98330744,0.0002892,70.0008,67.9566,272.6984,87.3844,-2.4585e-05,-3.86e-06,0.0,0 STARLINK-5332,1 55285U 23010S   23282.78426400 -.00000386  00000-0 -24585-4 0  9996,2 55285  70.0008  67.9566 0002892 272.6984  87.3844 14.98330744 41350,6950.191,96.107,574.066,570.046,0.0
55285.0,STARLINK-5332,PAYLOAD,2023-10-10 14:02:56,14.98332984,0.0002847,70.0009,65.9372,271.0225,89.0608,2.4193e-05,1.96e-06,0.0,0 STARLINK-5332,1 55285U 23010S   23283.58537997  .00000196  00000-0  24193-4 0  9991,2 55285  70.0009  65.9372 0002847 271.0225  89.0608 14.98332984 42665,6950.184,96.107,574.027,570.07,0.0
55285.0,STARLINK-5332,PAYLOAD,2023-10-10 18:51:20,14.98335624,0.0002875,70.001,65.4321,270.2405,89.8425,5.714e-05,5.89e-06,0.0,0 STARLINK-5332,1 55285U 23010S   23283.78565667  .00000589  00000-0  57140-4 0  9992,2 55285  70.0010  65.4321 0002875 270.2405  89.8425 14.98335624 41509,6950.175,96.107,574.039,570.042,0.0
55285.0,STARLINK-5332,PAYLOAD,2023-10-11 10:52:41,14.98327113,0.0002643,70.0012,63.7486,270.2143,89.8713,1.4099e-05,7.5e-07,0.0,0 STARLINK-5332,1 55285U 23010S   23284.45326321  .00000075  00000-0  14099-4 0  9995,2 55285  70.0012  63.7486 0002643 270.2143  89.8713 14.98327113 41601,6950.202,96.107,573.904,570.23,0.0
55285.0,STARLINK-5332,PAYLOAD,2023-10-11 14:04:58,14.98324016,0.0002739,70.0014,63.4124,269.1899,90.8946,-3.6392e-05,-5.27e-06,0.0,0 STARLINK-5332,1 55285U 23010S   23284.58678695 -.00000527  00000-0 -36392-4 0  9997,2 55285  70.0014  63.4124 0002739 269.1899  90.8946 14.98324016 42813,6950.211,96.107,573.98,570.173,0.0
55285.0,STARLINK-5332,PAYLOAD,2023-10-12 12:30:51,14.98328998,0.0003051,70.0005,61.0543,266.5825,93.4985,-4.7704e-05,-6.62e-06,0.0,0 STARLINK-5332,1 55285U 23010S   23285.52142367 -.00000662  00000-0 -47704-4 0  9993,2 55285  70.0005  61.0543 0003051 266.5825  93.4985 14.98328998 42950,6950.196,96.107,574.181,569.94,0.0
55285.0,STARLINK-5332,PAYLOAD,2023-10-12 18:55:22,14.98335077,0.0002953,70.001,60.3823,267.8245,92.2576,2.454e-05,2e-06,0.0,0 STARLINK-5332,1 55285U 23010S   23285.78845774  .00000200  00000-0  24540-4 0  9992,2 55285  70.0010  60.3823 0002953 267.8245  92.2576 14.98335077 41801,6950.177,96.107,574.095,569.99,0.0
55285.0,STARLINK-5332,PAYLOAD,2023-10-13 12:32:52,14.98323621,0.0002942,70.0014,58.5301,268.5049,91.5773,5.4246e-05,5.54e-06,0.0,0 STARLINK-5332,1 55285U 23010S   23286.52282425  .00000554  00000-0  54246-4 0  9991,2 55285  70.0014  58.5301 0002942 268.5049  91.5773 14.98323621 41918,6950.213,96.107,574.122,570.033,0.0
55285.0,STARLINK-5332,PAYLOAD,2023-10-13 14:09:00,14.98324811,0.0002957,70.0014,58.3621,268.6921,91.3899,5.9358e-05,6.15e-06,0.0,0 STARLINK-5332,1 55285U 23010S   23286.58958366  .00000615  00000-0  59358-4 0  9998,2 55285  70.0014  58.3621 0002957 268.6921  91.3899 14.98324811 43110,6950.209,96.107,574.129,570.019,0.0
55285.0,STARLINK-5332,PAYLOAD,2023-10-13 18:57:23,14.98333423,0.0002973,70.0012,57.8572,266.9704,93.1115,0.00010689,1.183e-05,0.0,0 STARLINK-5332,1 55285U 23010S   23286.78985668  .00001183  00000-0  10689-3 0  9999,2 55285  70.0012  57.8572 0002973 266.9704  93.1115 14.98333423 41955,6950.182,96.107,574.114,569.981,0.0
55285.0,STARLINK-5332,PAYLOAD,2023-10-14 12:34:52,14.98330545,0.0002937,70.0013,56.0061,268.6948,91.3874,3.5442e-05,3.3e-06,0.0,0 STARLINK-5332,1 55285U 23010S   23287.52421896  .00000330  00000-0  35442-4 0  9998,2 55285  70.0013  56.0061 0002937 268.6948  91.3874 14.98330545 43258,6950.191,96.107,574.097,570.015,0.0
55285.0,STARLINK-5332,PAYLOAD,2023-10-14 18:59:24,14.98333872,0.0002837,70.0018,55.3348,262.0856,97.9981,3.2397e-05,2.94e-06,0.0,0 STARLINK-5332,1 55285U 23010S   23287.79125636  .00000294  00000-0  32397-4 0  9995,2 55285  70.0018  55.3348 0002837 262.0856  97.9981 14.98333872 42108,6950.181,96.107,574.018,570.074,0.0
55285.0,STARLINK-5332,PAYLOAD,2023-10-15 12:36:54,14.98321142,0.0002928,70.0021,53.482,270.1932,89.8892,-3.6283e-06,-1.36e-06,0.0,0 STARLINK-5332,1 55285U 23010S   23288.52562614 -.00000136  00000-0 -36283-5 0  9994,2 55285  70.0021  53.4820 0002928 270.1932  89.8892 14.98321142 42212,6950.22,96.108,574.12,570.05,0.0
55285.0,STARLINK-5332,PAYLOAD,2023-10-15 14:13:02,14.98322354,0.0002839,70.0022,53.3139,270.4931,89.5903,-5.0376e-05,-6.94e-06,0.0,0 STARLINK-5332,1 55285U 23010S   23288.59238690 -.00000694  00000-0 -50376-4 0  9992,2 55285  70.0022  53.3139 0002839 270.4931  89.5903 14.98322354 43417,6950.217,96.107,574.055,570.108,0.0
55285.0,STARLINK-5332,PAYLOAD,2023-10-15 17:25:17,14.98359985,0.000296,70.0022,52.9774,268.6197,91.4623,-0.00065254,-7.876e-05,0.0,0 STARLINK-5332,1 55285U 23010S   23288.72589841 -.00007876  00000-0 -65254-3 0  9993,2 55285  70.0022  52.9774 0002960 268.6197  91.4623 14.98359985 42246,6950.1,96.105,574.022,569.908,0.0
55285.0,STARLINK-5332,PAYLOAD,2023-10-16 12:38:54,14.98327296,0.0002774,70.002,50.9578,267.6254,92.4587,7.2118e-05,7.68e-06,0.0,0 STARLINK-5332,1 55285U 23010S   23289.52701998  .00000768  00000-0  72118-4 0  9990,2 55285  70.0020  50.9578 0002774 267.6254  92.4587 14.98327296 42363,6950.201,96.107,573.994,570.138,0.0
55285.0,STARLINK-5332,PAYLOAD,2023-10-16 17:27:17,14.98378489,0.000288,70.0021,50.4526,264.385,95.698,-0.00075184,-9.063e-05,0.0,0 STARLINK-5332,1 55285U 23010S   23289.72728607 -.00009063  00000-0 -75184-3 0  9992,2 55285  70.0021  50.4526 0002880 264.3850  95.6980 14.98378489 42391,6950.043,96.104,573.91,569.906,0.0
55285.0,STARLINK-5332,PAYLOAD,2023-10-17 11:04:47,14.98326142,0.000286,70.0015,48.6004,268.8854,91.1977,4.7982e-05,4.8e-06,0.0,0 STARLINK-5332,1 55285U 23010S   23290.46166102  .00000480  00000-0  47982-4 0  9999,2 55285  70.0015  48.6004 0002860 268.8854  91.1977 14.98326142 42504,6950.205,96.107,574.058,570.082,0.0
55285.0,STARLINK-5332,PAYLOAD,2023-10-18 01:30:00,14.98331993,0.00031,70.001,47.0844,269.0063,91.0741,-0.00011925,-1.516e-05,0.0,0 STARLINK-5332,1 55285U 23010S   23291.06250156 -.00001516  00000-0 -11925-3 0  9999,2 55285  70.0010  47.0844 0003100 269.0063  91.0741 14.98331993 43786,6950.187,96.107,574.206,569.897,0.0
55285.0,STARLINK-5332,PAYLOAD,2023-10-18 11:06:48,14.98329568,0.0002906,70.0011,46.0746,272.5211,87.5615,-3.7231e-05,-5.37e-06,0.0,0 STARLINK-5332,1 55285U 23010S   23291.46306230 -.00000537  00000-0 -37231-4 0  9999,2 55285  70.0011  46.0746 0002906 272.5211  87.5615 14.98329568 42654,6950.194,96.107,574.079,570.04,0.0
55285.0,STARLINK-5332,PAYLOAD,2023-10-18 14:19:04,14.98332339,0.0002933,70.0009,45.738,272.6265,87.4558,-9.4404e-06,-2.06e-06,0.0,0 STARLINK-5332,1 55285U 23010S   23291.59657938 -.00000206  00000-0 -94404-5 0  9996,2 55285  70.0009  45.7380 0002933 272.6265  87.4558 14.98332339 43860,6950.186,96.107,574.089,570.012,0.0
55285.0,STARLINK-5332,PAYLOAD,2023-10-19 11:08:48,14.98336864,0.0002963,70.0011,43.5498,272.2258,87.8562,6.3076e-05,6.6e-06,0.0,0 STARLINK-5332,1 55285U 23010S   23292.46445196  .00000660  00000-0  63076-4 0  9996,2 55285  70.0011  43.5498 0002963 272.2258  87.8562 14.98336864 42809,6950.172,96.107,574.096,569.977,0.0
55285.0,STARLINK-5332,PAYLOAD,2023-10-20 11:10:50,14.98327292,0.0003047,70.0015,41.0255,272.4459,87.6351,-9.4671e-06,-2.06e-06,0.0,0 STARLINK-5332,1 55285U 23010S   23293.46585847 -.00000206  00000-0 -94671-5 0  9999,2 55285  70.0015  41.0255 0003047 272.4459  87.6351 14.98327292 42951,6950.201,96.107,574.184,569.949,0.0
55285.0,STARLINK-5332,PAYLOAD,2023-10-20 17:35:22,14.98325042,0.0003141,70.0019,40.3536,272.7174,87.3625,-8.1355e-05,-1.063e-05,0.0,0 STARLINK-5332,1 55285U 23010S   23293.73290242 -.00001063  00000-0 -81355-4 0  9997,2 55285  70.0019  40.3536 0003141 272.7174  87.3625 14.98325042 44180,6950.208,96.107,574.256,569.89,0.0
55285.0,STARLINK-5332,PAYLOAD,2023-10-21 11:12:50,14.98334303,0.0003037,70.0023,38.5029,268.9538,91.1273,-7.4611e-05,-9.83e-06,0.0,0 STARLINK-5332,1 55285U 23010S   23294.46725628 -.00000983  00000-0 -74611-4 0  9996,2 55285  70.0023  38.5029 0003037 268.9538  91.1273 14.98334303 43109,6950.18,96.107,574.155,569.934,0.0
55285.0,STARLINK-5332,PAYLOAD,2023-10-22 12:51:00,14.98317732,0.0003058,70.0017,35.8089,264.5102,95.5708,-2.9671e-05,-4.47e-06,0.0,0 STARLINK-5332,1 55285U 23010S   23295.53542491 -.00000447  00000-0 -29671-4 0  9991,2 55285  70.0017  35.8089 0003058 264.5102  95.5708 14.98317732 43265,6950.231,96.108,574.221,569.97,0.0
55285.0,STARLINK-5332,PAYLOAD,2023-10-22 16:03:16,14.98317025,0.0002977,70.0021,35.4725,262.8489,97.2331,-2.5599e-05,-3.98e-06,0.0,0 STARLINK-5332,1 55285U 23010S   23295.66894628 -.00000398  00000-0 -25599-4 0  9997,2 55285  70.0021  35.4725 0002977 262.8489  97.2331 14.98317025 44471,6950.233,96.108,574.167,570.029,0.0
55285.0,STARLINK-5332,PAYLOAD,2023-10-23 12:53:01,14.98333585,0.000288,70.0016,33.2823,260.0606,100.0228,-1.3361e-05,-2.52e-06,0.0,0 STARLINK-5332,1 55285U 23010S   23296.53681755 -.00000252  00000-0 -13361-4 0  9992,2 55285  70.0016  33.2823 0002880 260.0606 100.0228 14.98333585 43414,6950.182,96.107,574.048,570.045,0.0
